QIANFAN-57              
1 62787U 25016C   25294.83192535  .00000056  00000+0  67934-4 0  9995
2 62787  88.9744 108.5577 0001113  69.6534 290.4737 13.50976073 40191
QIANFAN-58              
1 62788U 25016D   25294.87715838  .00000065  00000+0  81081-4 0  9996
2 62788  88.9714 108.4005 0015190 128.9167 231.3341 13.50975665 40242
QIANFAN-59              
1 62789U 25016E   25294.82776850  .00000074  00000+0  96085-4 0  9993
2 62789  88.9738 108.4670 0015488 132.5909 227.6552 13.50975060 40232
QIANFAN-60              
1 62790U 25016F   25274.04851698  .00000079  00000+0  10311-3 0  9993
2 62790  88.9733 110.6064 0013715 186.6144 173.4828 13.51176660 37413
QIANFAN-61              
1 62791U 25016G   25294.89357994  .00000076  00000+0  99211-4 0  9993
2 62791  88.9786 108.5692 0016041 128.7449 231.5138 13.50975362 40245
QIANFAN-62              
1 62792U 25016H   25294.82378808  .00000074  00000+0  96249-4 0  9990
2 62792  88.9732 108.4729 0017402 129.6014 230.6676 13.50969284 40228
QIANFAN-63              
1 62793U 25016J   25294.84836251  .00000064  00000+0  80629-4 0  9998
2 62793  88.9739 108.4184 0017371 134.5141 225.7433 13.50972247 40265
QIANFAN-64              
1 62794U 25016K   25294.88949184  .00000070  00000+0  89068-4 0  9996
2 62794  88.9726 108.3952 0015449 127.3986 232.8574 13.50973900 40267
